[{"OBJECT_NAME":"IRIDIUM 120","OBJECT_ID":"2017-039C","EPOCH":"2026-03-09T21:12:27.197568","MEAN_MOTION":14.34217759,"ECCENTRICITY":0.00021079,"INCLINATION":86.4016,"RA_OF_ASC_NODE":3.4651,"ARG_OF_PERICENTER":89.0553,"MEAN_ANOMALY":271.0885,"EPHEMERIS_TYPE":0,"CLASSIFICATION_TYPE":"U","NORAD_CAT_ID":42805,"ELEMENT_SET_NO":999,"REV_AT_EPOCH":45694,"BSTAR":1.4790436e-5,"MEAN_MOTION_DOT":6.1e-7,"MEAN_MOTION_DDOT":0},{"OBJECT_NAME":"COSMOS 1023","OBJECT_ID":"1978-063A","EPOCH":"2026-03-09T21:12:40.828896","MEAN_MOTION":14.37571044,"ECCENTRICITY":0.0015167,"INCLINATION":74.0737,"RA_OF_ASC_NODE":270.6318,"ARG_OF_PERICENTER":93.965,"MEAN_ANOMALY":266.3238,"EPHEMERIS_TYPE":0,"CLASSIFICATION_TYPE":"U","NORAD_CAT_ID":10961,"ELEMENT_SET_NO":999,"REV_AT_EPOCH":49866,"BSTAR":7.2410842e-5,"MEAN_MOTION_DOT":1.91e-6,"MEAN_MOTION_DDOT":0}]
